start=new Date('2023-01-21T00:00:00.000Z').valueOf();
sats=[{"DECAY_DATE":null,"REV_AT_EPOCH":"3795","PERIAPSIS":"538.698","BSTAR":"0.00062153000000","ELEMENT_SET_NO":"999","FILE":"3756267","MEAN_ANOMALY":"261.9076","GP_ID":"223557147","SITE":"AFETR","MEAN_MOTION_DDOT":"0.0000000000000","MEAN_MOTION":"15.08845793","ECCENTRICITY":"0.00014890","TLE_LINE1":"1 52671U 22053R   23020.94231611  .00009619  00000-0  62153-3 0  9992","INCLINATION":"53.2142","ARG_OF_PERICENTER":"98.2085","CLASSIFICATION_TYPE":"U","TIME_SYSTEM":"UTC","EPOCH":"2023-01-20T22:36:56.111904","MEAN_MOTION_DOT":"0.00009619","PERIOD":"95.437","LAUNCH_DATE":"2022-05-18","RCS_SIZE":"LARGE","EPHEMERIS_TYPE":"0","COUNTRY_CODE":"US","SEMIMAJOR_AXIS":"6917.863","OBJECT_ID":"2022-053R","CENTER_NAME":"EARTH","RA_OF_ASC_NODE":"248.6121","MEAN_ELEMENT_THEORY":"SGP4","REF_FRAME":"TEME","TLE_LINE2":"2 52671  53.2142 248.6121 0001489  98.2085 261.9076 15.08845793 37953","OBJECT_TYPE":"PAYLOAD","NORAD_CAT_ID":"52671","OBJECT_NAME":"STARLINK-4071","APOAPSIS":"540.758"},{"APOAPSIS":"540.639","OBJECT_NAME":"STARLINK-4073","REF_FRAME":"TEME","MEAN_ELEMENT_THEORY":"SGP4","NORAD_CAT_ID":"52672","TLE_LINE2":"2 52672  53.2125 249.1597 0001313  96.5744 263.5397 15.08844895 37920","OBJECT_TYPE":"PAYLOAD","COUNTRY_CODE":"US","EPHEMERIS_TYPE":"0","RA_OF_ASC_NODE":"249.1597","CENTER_NAME":"EARTH","SEMIMAJOR_AXIS":"6917.865","OBJECT_ID":"2022-053S","RCS_SIZE":"LARGE","LAUNCH_DATE":"2022-05-18","PERIOD":"95.437","ARG_OF_PERICENTER":"96.5744","CLASSIFICATION_TYPE":"U","TIME_SYSTEM":"UTC","INCLINATION":"53.2125","MEAN_MOTION_DOT":"0.00010521","EPOCH":"2023-01-20T19:42:03.837600","TLE_LINE1":"1 52672U 22053S   23020.82087775  .00010521  00000-0  67805-3 0  9993","MEAN_MOTION":"15.08844895","ECCENTRICITY":"0.00013130","GP_ID":"223552469","MEAN_ANOMALY":"263.5397","MEAN_MOTION_DDOT":"0.0000000000000","SITE":"AFETR","FILE":"3756055","ELEMENT_SET_NO":"999","BSTAR":"0.00067805000000","PERIAPSIS":"538.822","DECAY_DATE":null,"REV_AT_EPOCH":"3792"},{"PERIAPSIS":"538.811","BSTAR":"0.00009929600000","DECAY_DATE":null,"REV_AT_EPOCH":"3828","FILE":"3755973","ELEMENT_SET_NO":"999","SITE":"AFETR","MEAN_MOTION_DDOT":"0.0000000000000","GP_ID":"223547325","MEAN_ANOMALY":"265.7558","ECCENTRICITY":"0.00013600","MEAN_MOTION":"15.08837984","TLE_LINE1":"1 52673U 22053T   23020.33879381  .00001293  00000-0  99296-4 0  9998","EPOCH":"2023-01-20T08:07:51.785184","MEAN_MOTION_DOT":"0.00001293","TIME_SYSTEM":"UTC","CLASSIFICATION_TYPE":"U","ARG_OF_PERICENTER":"94.3589","INCLINATION":"53.2137","PERIOD":"95.438","LAUNCH_DATE":"2022-05-18","RCS_SIZE":"LARGE","CENTER_NAME":"EARTH","OBJECT_ID":"2022-053T","SEMIMAJOR_AXIS":"6917.887","RA_OF_ASC_NODE":"251.3228","EPHEMERIS_TYPE":"0","COUNTRY_CODE":"US","NORAD_CAT_ID":"52673","TLE_LINE2":"2 52673  53.2137 251.3228 0001360  94.3589 265.7558 15.08837984 38289","OBJECT_TYPE":"PAYLOAD","REF_FRAME":"TEME","MEAN_ELEMENT_THEORY":"SGP4","APOAPSIS":"540.692","OBJECT_NAME":"STARLINK-3976"},{"NORAD_CAT_ID":"52674","TLE_LINE2":"2 52674  53.2143 251.2521 0001383  81.2783 278.8366 15.08836264 38291","OBJECT_TYPE":"PAYLOAD","REF_FRAME":"TEME","MEAN_ELEMENT_THEORY":"SGP4","APOAPSIS":"540.714","OBJECT_NAME":"STARLINK-3936","PERIOD":"95.438","RCS_SIZE":"LARGE","LAUNCH_DATE":"2022-05-18","CENTER_NAME":"EARTH","OBJECT_ID":"2022-053U","SEMIMAJOR_AXIS":"6917.892","RA_OF_ASC_NODE":"251.2521","EPHEMERIS_TYPE":"0","COUNTRY_CODE":"US","MEAN_MOTION":"15.08836264","ECCENTRICITY":"0.00013830","TLE_LINE1":"1 52674U 22053U   23020.35351696  .00007701  00000-0  50144-3 0  9993","EPOCH":"2023-01-20T08:29:03.865344","MEAN_MOTION_DOT":"0.00007701","TIME_SYSTEM":"UTC","CLASSIFICATION_TYPE":"U","ARG_OF_PERICENTER":"81.2783","INCLINATION":"53.2143","BSTAR":"0.00050144000000","PERIAPSIS":"538.800","REV_AT_EPOCH":"3829","DECAY_DATE":null,"FILE":"3755973","ELEMENT_SET_NO":"999","SITE":"AFETR","MEAN_MOTION_DDOT":"0.0000000000000","GP_ID":"223547575","MEAN_ANOMALY":"278.8366"},{"SEMIMAJOR_AXIS":"6917.880","OBJECT_ID":"2022-053V","CENTER_NAME":"EARTH","RA_OF_ASC_NODE":"241.3238","EPHEMERIS_TYPE":"0","COUNTRY_CODE":"US","PERIOD":"95.438","RCS_SIZE":"LARGE","LAUNCH_DATE":"2022-05-18","OBJECT_NAME":"STARLINK-3934","APOAPSIS":"540.623","TLE_LINE2":"2 52675  53.2155 241.3238 0001269  80.1735 279.9401 15.08840026 38415","OBJECT_TYPE":"PAYLOAD","NORAD_CAT_ID":"52675","MEAN_ELEMENT_THEORY":"SGP4","REF_FRAME":"TEME","SITE":"AFETR","MEAN_MOTION_DDOT":"0.0000000000000","MEAN_ANOMALY":"279.9401","GP_ID":"223548326","DECAY_DATE":null,"REV_AT_EPOCH":"3841","PERIAPSIS":"538.867","BSTAR":"0.00020737000000","ELEMENT_SET_NO":"999","FILE":"3755973","EPOCH":"2023-01-20T08:03:53.705664","MEAN_MOTION_DOT":"0.00003014","INCLINATION":"53.2155","CLASSIFICATION_TYPE":"U","TIME_SYSTEM":"UTC","ARG_OF_PERICENTER":"80.1735","ECCENTRICITY":"0.00012690","MEAN_MOTION":"15.08840026","TLE_LINE1":"1 52675U 22053V   23020.33603826  .00003014  00000-0  20737-3 0  9995"},{"INCLINATION":"53.2152","CLASSIFICATION_TYPE":"U","TIME_SYSTEM":"UTC","ARG_OF_PERICENTER":"104.6752","EPOCH":"2023-01-20T19:20:51.807552","MEAN_MOTION_DOT":"0.00004409","MEAN_MOTION":"15.08842946","ECCENTRICITY":"0.00015550","TLE_LINE1":"1 52676U 22053W   23020.80615518  .00004409  00000-0  29493-3 0  9996","MEAN_ANOMALY":"255.4412","GP_ID":"223552492","SITE":"AFETR","MEAN_MOTION_DDOT":"0.0000000000000","DECAY_DATE":null,"REV_AT_EPOCH":"3792","PERIAPSIS":"538.661","BSTAR":"0.00029493000000","ELEMENT_SET_NO":"999","FILE":"3756065","OBJECT_NAME":"STARLINK-4006","APOAPSIS":"540.812","MEAN_ELEMENT_THEORY":"SGP4","REF_FRAME":"TEME","TLE_LINE2":"2 52676  53.2152 249.2271 0001555 104.6752 255.4412 15.08842946 37925","OBJECT_TYPE":"PAYLOAD","NORAD_CAT_ID":"52676","EPHEMERIS_TYPE":"0","COUNTRY_CODE":"US","OBJECT_ID":"2022-053W","SEMIMAJOR_AXIS":"6917.871","CENTER_NAME":"EARTH","RA_OF_ASC_NODE":"249.2271","PERIOD":"95.437","LAUNCH_DATE":"2022-05-18","RCS_SIZE":"LARGE"},{"TLE_LINE1":"1 52677U 22053X   23020.59363450  .00003756  00000-0  25396-3 0  9990","ECCENTRICITY":"0.00013560","MEAN_MOTION":"15.08842900","MEAN_MOTION_DOT":"0.00003756","EPOCH":"2023-01-20T14:14:50.020800","INCLINATION":"53.2141","TIME_SYSTEM":"UTC","CLASSIFICATION_TYPE":"U","ARG_OF_PERICENTER":"79.3389","ELEMENT_SET_NO":"999","FILE":"3756065","REV_AT_EPOCH":"3802","DECAY_DATE":null,"PERIAPSIS":"538.798","BSTAR":"0.00025396000000","MEAN_MOTION_DDOT":"0.0000000000000","SITE":"AFETR","MEAN_ANOMALY":"280.7756","GP_ID":"223552493","TLE_LINE2":"2 52677  53.2141 240.1626 0001356  79.3389 280.7756 15.08842900 38025","OBJECT_TYPE":"PAYLOAD","NORAD_CAT_ID":"52677","MEAN_ELEMENT_THEORY":"SGP4","REF_FRAME":"TEME","OBJECT_NAME":"STARLINK-4028","APOAPSIS":"540.675","RCS_SIZE":"LARGE","LAUNCH_DATE":"2022-05-18","PERIOD":"95.437","RA_OF_ASC_NODE":"240.1626","OBJECT_ID":"2022-053X","SEMIMAJOR_AXIS":"6917.872","CENTER_NAME":"EARTH","COUNTRY_CODE":"US","EPHEMERIS_TYPE":"0"},{"MEAN_MOTION_DOT":"0.00001575","EPOCH":"2023-01-20T08:05:15.358848","INCLINATION":"53.2147","TIME_SYSTEM":"UTC","CLASSIFICATION_TYPE":"U","ARG_OF_PERICENTER":"80.9485","TLE_LINE1":"1 52678U 22053Y   23020.33698332  .00001575  00000-0  11698-3 0  9990","ECCENTRICITY":"0.00013880","MEAN_MOTION":"15.08846045","MEAN_MOTION_DDOT":"0.0000000000000","SITE":"AFETR","MEAN_ANOMALY":"279.1664","GP_ID":"223547076","ELEMENT_SET_NO":"999","FILE":"3755973","REV_AT_EPOCH":"3841","DECAY_DATE":null,"PERIAPSIS":"538.767","BSTAR":"0.00011698000000","OBJECT_NAME":"STARLINK-4074","APOAPSIS":"540.687","TLE_LINE2":"2 52678  53.2147 241.3205 0001388  80.9485 279.1664 15.08846045 38415","OBJECT_TYPE":"PAYLOAD","NORAD_CAT_ID":"52678","MEAN_ELEMENT_THEORY":"SGP4","REF_FRAME":"TEME","RA_OF_ASC_NODE":"241.3205","OBJECT_ID":"2022-053Y","SEMIMAJOR_AXIS":"6917.862","CENTER_NAME":"EARTH","COUNTRY_CODE":"US","EPHEMERIS_TYPE":"0","LAUNCH_DATE":"2022-05-18","RCS_SIZE":"LARGE","PERIOD":"95.437"},{"NORAD_CAT_ID":"52679","TLE_LINE2":"2 52679  53.2141 240.2191 0001047  79.6539 280.4571 15.08845810 38027","OBJECT_TYPE":"PAYLOAD","REF_FRAME":"TEME","MEAN_ELEMENT_THEORY":"SGP4","APOAPSIS":"540.452","OBJECT_NAME":"STARLINK-4031","RCS_SIZE":"LARGE","LAUNCH_DATE":"2022-05-18","PERIOD":"95.437","RA_OF_ASC_NODE":"240.2191","CENTER_NAME":"EARTH","SEMIMAJOR_AXIS":"6917.863","OBJECT_ID":"2022-053Z","COUNTRY_CODE":"US","EPHEMERIS_TYPE":"0","TLE_LINE1":"1 52679U 22053Z   23020.58259463  .00008198  00000-0  53250-3 0  9994","MEAN_MOTION":"15.08845810","ECCENTRICITY":"0.00010470","MEAN_MOTION_DOT":"0.00008198","EPOCH":"2023-01-20T13:58:56.176032","ARG_OF_PERICENTER":"79.6539","CLASSIFICATION_TYPE":"U","TIME_SYSTEM":"UTC","INCLINATION":"53.2141","FILE":"3756065","ELEMENT_SET_NO":"999","PERIAPSIS":"539.003","BSTAR":"0.00053250000000","REV_AT_EPOCH":"3802","DECAY_DATE":null,"MEAN_MOTION_DDOT":"0.0000000000000","SITE":"AFETR","GP_ID":"223552615","MEAN_ANOMALY":"280.4571"},{"APOAPSIS":"540.947","OBJECT_NAME":"STARLINK-3774","NORAD_CAT_ID":"52680","TLE_LINE2":"2 52680  53.2158 241.3298 0001748  68.2321 291.8857 15.08842537 38394","OBJECT_TYPE":"PAYLOAD","REF_FRAME":"TEME","MEAN_ELEMENT_THEORY":"SGP4","RA_OF_ASC_NODE":"241.3298","CENTER_NAME":"EARTH","SEMIMAJOR_AXIS":"6917.873","OBJECT_ID":"2022-053AA","COUNTRY_CODE":"US","EPHEMERIS_TYPE":"0","RCS_SIZE":"LARGE","LAUNCH_DATE":"2022-05-18","PERIOD":"95.437","MEAN_MOTION_DOT":"0.00003052","EPOCH":"2023-01-20T07:58:35.313888","ARG_OF_PERICENTER":"68.2321","CLASSIFICATION_TYPE":"U","TIME_SYSTEM":"UTC","INCLINATION":"53.2158","TLE_LINE1":"1 52680U 22053AA  23020.33235317  .00003052  00000-0  20974-3 0  9992","MEAN_MOTION":"15.08842537","ECCENTRICITY":"0.00017480","MEAN_MOTION_DDOT":"0.0000000000000","SITE":"AFETR","GP_ID":"223548575","MEAN_ANOMALY":"291.8857","FILE":"3755973","ELEMENT_SET_NO":"999","BSTAR":"0.00020974000000","PERIAPSIS":"538.528","REV_AT_EPOCH":"3839","DECAY_DATE":null}];
